STARLINK-36122          
1 66952U 25286AD  26068.18172151  .00032008  00000+0  10886-2 0  9996
2 66952  53.1591   1.1881 0001013  73.1350 286.9762 15.30185779 15335
KUIPER-00209            
1 67776U 26030N   26068.61786546  .00035298  00000+0  11963-2 0  9997
2 67776  51.8838 220.0775 0012191  59.1967 301.0215 15.30161950  5077
